FLOCK 2K-43             
1 42874U 17042BB  17212.70204722  .00001208  00000-0  40236-4 0  9996
2 42874  97.0012 120.7826 0013333 170.5560 189.5936 15.32847623  2474
FLOCK 2K-41             
1 42875U 17042BC  17212.70173672  .00001228  00000-0  40837-4 0  9995
2 42875  97.0011 120.7826 0013374 170.3463 189.8040 15.32876214  2476
FLOCK 2K-36             
1 42876U 17042BD  17212.70148138  .00001174  00000-0  39126-4 0  9994
2 42876  97.0012 120.7837 0013429 170.5784 189.5714 15.32898634  2474
FLOCK 2K-35             
1 42877U 17042BE  17212.70108792  .00001304  00000-0  43152-4 0  9996
2 42877  97.0012 120.7840 0013520 170.5717 189.5782 15.32935200  2473
FLOCK 2K-34             
1 42878U 17042BF  17212.70102953  .00001260  00000-0  41759-4 0  9992
2 42878  97.0009 120.7830 0013511 170.5489 189.6011 15.32939991  2472
FLOCK 2K-33             
1 42879U 17042BG  17212.70096911  .00001373  00000-0  45296-4 0  9994
2 42879  97.0010 120.7832 0013465 170.3104 189.8401 15.32946626  2475
FLOCK 2K-28             
1 42880U 17042BH  17212.70095881  .00001285  00000-0  42547-4 0  9999
2 42880  97.0012 120.7843 0013433 170.4082 189.7420 15.32946282  2470
FLOCK 2K-42             
1 42881U 17042BJ  17212.76585781  .00002293  00000-0  74016-4 0  9995
2 42881  97.0036 120.8468 0014136 173.8246 186.3174 15.32997819  2472
FLOCK 2K-27             
1 42882U 17042BK  17212.76569405  .00001268  00000-0  41953-4 0  9996
2 42882  97.0012 120.8468 0013633 170.0936 190.0579 15.32994966  2485
FLOCK 2K-26             
1 42883U 17042BL  17212.70017753  .00001753  00000-0  57078-4 0  9999
2 42883  97.0012 120.7848 0013629 170.4204 189.7302 15.33020712  2472
FLOCK 2K-25             
1 42884U 17042BM  17212.69983211  .00001303  00000-0  42967-4 0  9991
2 42884  97.0009 120.7844 0013752 170.2917 189.8595 15.33048007  2473
FLOCK 2K-20             
1 42885U 17042BN  17212.69954387  .00001279  00000-0  42164-4 0  9995
2 42885  97.0012 120.7859 0013814 170.2013 189.9502 15.33073571  2473
FLOCK 2K-19             
1 42886U 17042BP  17212.69933667  .00001292  00000-0  42573-4 0  9993
2 42886  97.0013 120.7864 0013847 170.1780 189.9736 15.33092412  2471
FLOCK 2K-18             
1 42887U 17042BQ  17212.69905285  .00003211  00000-0  10232-3 0  9998
2 42887  97.0010 120.7863 0013892 169.8469 190.3058 15.33130187  2472
FLOCK 2K-17             
1 42888U 17042BR  17212.69897332  .00001243  00000-0  40988-4 0  9997
2 42888  97.0009 120.7855 0013874 169.6456 190.5076 15.33124466  2471
FLOCK 2K-16             
1 42889U 17042BS  17212.69871160  .00001218  00000-0  40190-4 0  9996
2 42889  97.0013 120.7872 0013901 169.3179 190.8362 15.33147508  2479
FLOCK 2K-15             
1 42890U 17042BT  17212.69845634  .00001295  00000-0  42560-4 0  9993
2 42890  97.0015 120.7881 0013953 169.2276 190.9269 15.33171582  2473
FLOCK 2K-13             
1 42891U 17042BU  17212.69812064  .00004516  00000-0  14258-3 0  9996
2 42891  97.0009 120.7873 0014025 168.7863 191.3696 15.33222968  2479
FLOCK 2K-14             
1 42892U 17042BV  17212.69815081  .00001277  00000-0  41942-4 0  9991
2 42892  97.0009 120.7866 0013983 168.8502 191.3054 15.33198410  2477
FLOCK 2K-12             
1 42893U 17042BW  17212.69756204  .00001302  00000-0  42670-4 0  9991
2 42893  97.0012 120.7884 0014062 168.1739 191.9837 15.33252014  2472
FLOCK 2K-11             
1 42894U 17042BX  17212.69746023  .00001298  00000-0  42535-4 0  9994
2 42894  97.0014 120.7887 0013972 167.7024 192.4564 15.33261143  2475
FLOCK 2K-10             
1 42895U 17042BY  17212.69713721  .00001281  00000-0  41952-4 0  9998
2 42895  97.0008 120.7878 0013989 167.2487 192.9113 15.33289991  2471
FLOCK 2K-09             
1 42896U 17042BZ  17212.69661471  .00001803  00000-0  58037-4 0  9995
2 42896  97.0012 120.7891 0013718 165.8492 194.3139 15.33349907  2649
FLOCK 2K-06             
1 42897U 17042CA  17212.70447490  .00001663  00000-0  54934-4 0  9997
2 42897  97.0013 120.7799 0012031 179.3879 180.7380 15.32633921  2473
